ONEWEB-0249             
1 48967U 21060A   24236.35861708  .00000098  00000+0  22207-3 0  9990
2 48967  87.9159   0.7534 0001827  97.8953 262.2386 13.16595198153683
ONEWEB-0250             
1 48968U 21060B   24236.35983179  .00000008  00000+0 -10859-4 0  9991
2 48968  87.9157   0.6636 0001854 112.0171 248.1162 13.25520111153684
ONEWEB-0252             
1 48970U 21060D   24235.85830153  .00000041  00000+0  73955-4 0  9993
2 48970  87.9157   0.8455 0001684  95.5477 264.5846 13.16594948152378
ONEWEB-0253             
1 48971U 21060E   24236.37919539 -.00000005  00000+0 -47452-4 0  9993
2 48971  87.9157   0.7530 0001525 104.4865 255.6435 13.16594576153651
ONEWEB-0254             
1 48972U 21060F   24236.38869500  .00000026  00000+0  34083-4 0  9994
2 48972  87.9160   0.7300 0001530 105.2934 254.8366 13.16594250153656
ONEWEB-0255             
1 48973U 21060G   24235.89471574  .00000076  00000+0  16401-3 0  9998
2 48973  87.9158   0.8626 0001803 100.2280 259.9055 13.16594485152388
ONEWEB-0256             
1 48974U 21060H   24236.37681208  .00000008  00000+0 -13779-4 0  9992
2 48974  87.9162   0.7720 0001777  92.8165 267.3170 13.16596744153704
ONEWEB-0257             
1 48975U 21060J   24236.10527675  .00000151  00000+0  36066-3 0  9992
2 48975  87.9158   0.7949 0001631  95.9864 264.1453 13.16597324153627
